     2              NAVIGATION DATA                         RINEX VERSION / TYPE
CCRINEXN V1.6.0 UX  CDDIS               30-JUN-21 01:31     PGM / RUN BY / DATE 
IGS BROADCAST EPHEMERIS FILE                                COMMENT             
    0.4657D-08  0.1490D-07 -0.5960D-07 -0.1192D-06          ION ALPHA           
    0.8192D+05  0.9830D+05 -0.6554D+05 -0.5243D+06          ION BETA            
   -0.465661287308D-08-0.133226762955D-13   405504     2164 DELTA-UTC: A0,A1,T,W
    18                                                      LEAP SECONDS        
                                                            END OF HEADER       
22 21  6 29 18  0  0.0-0.576070509851D-03 0.954969436862D-11 0.000000000000D+00
    0.640000000000D+02-0.719687500000D+02 0.517485841077D-08-0.288826058541D+01
   -0.371783971786D-05 0.696345930919D-02 0.453181564808D-05 0.515380218506D+04
    0.237600000000D+06 0.260770320892D-07-0.312615840118D+01 0.117346644402D-06
    0.935718398599D+00 0.277343750000D+03-0.932648763445D+00-0.839677833095D-08
   -0.170721396946D-09 0.100000000000D+01 0.216400000000D+04 0.000000000000D+00
    0.200000000000D+01 0.000000000000D+00-0.176951289177D-07 0.640000000000D+02
    0.230418000000D+06 0.400000000000D+01 0.000000000000D+00 0.000000000000D+00
23 21  6 29 18  0  0.0 0.910526141524D-04-0.466116034659D-11 0.000000000000D+00
    0.137000000000D+03-0.879687500000D+02 0.465805116939D-08 0.181352301718D+01
   -0.445730984211D-05 0.134324340615D-02 0.522844493389D-05 0.515365972710D+04
    0.237600000000D+06 0.596046447754D-07-0.305205624619D+01 0.558793544769D-08
    0.964972111030D+00 0.279468750000D+03 0.261775509075D+01-0.828927385296D-08
   -0.300726812193D-09 0.100000000000D+01 0.216400000000D+04 0.000000000000D+00
    0.200000000000D+01 0.000000000000D+00-0.838190300000D-08 0.649000000000D+03
    0.230970000000D+06 0.400000000000D+01 0.000000000000D+00 0.000000000000D+00
24 21  6 29 18  0  0.0 0.154228881002D-03 0.161435309565D-10 0.000000000000D+00
    0.970000000000D+02 0.338125000000D+02 0.515735768179D-08 0.257300976636D+01
    0.167265534401D-05 0.111739321146D-01 0.705011188984D-05 0.515371994400D+04
    0.237600000000D+06 0.931322574616D-08-0.100231529084D+01-0.160187482834D-06
    0.934677419741D+00 0.229000000000D+03 0.742643765179D+00-0.825177229087D-08
    0.326442169055D-09 0.100000000000D+01 0.216400000000D+04 0.000000000000D+00
    0.282842707634D+01 0.000000000000D+00 0.279396772385D-08 0.970000000000D+02
    0.230476000000D+06 0.400000000000D+01 0.000000000000D+00 0.000000000000D+00
25 21  6 29 18  0  0.0 0.164704397321D-03 0.682121026330D-11 0.000000000000D+00
    0.540000000000D+02 0.131250000000D+01 0.466340853540D-08 0.621461531442D+00
   -0.154599547386D-06 0.984638824593D-02 0.747852027416D-05 0.515360465240D+04
    0.237600000000D+06-0.119209289551D-06 0.113219169793D+00 0.800937414169D-07
    0.960853099868D+00 0.236906250000D+03 0.971382051904D+00-0.822998566908D-08
   -0.375729936374D-09 0.100000000000D+01 0.216400000000D+04 0.000000000000D+00
    0.200000000000D+01 0.000000000000D+00 0.558793544769D-08 0.540000000000D+02
    0.232783000000D+06 0.400000000000D+01 0.000000000000D+00 0.000000000000D+00
26 21  6 29 18  0  0.0 0.104520004243D-03 0.466116034659D-11 0.000000000000D+00
    0.141000000000D+03-0.200000000000D+01 0.511092717635D-08-0.584417998213D-01
    0.223517417908D-07 0.591173360590D-02 0.680238008499D-05 0.515357926559D+04
    0.237600000000D+06 0.931322574615D-07 0.705635243969D-01 0.316649675369D-07
    0.941754574144D+00 0.237500000000D+03 0.304212645712D+00-0.844570894053D-08
   -0.252867675811D-09 0.100000000000D+01 0.216400000000D+04 0.000000000000D+00
    0.200000000000D+01 0.000000000000D+00 0.698491930962D-08 0.141000000000D+03
    0.230418000000D+06 0.400000000000D+01 0.000000000000D+00 0.000000000000D+00
27 21  6 29 18  0  0.0-0.155067071319D-03-0.602540239925D-11 0.000000000000D+00
    0.190000000000D+02 0.509062500000D+02 0.406266922648D-08-0.190340059024D+01
    0.243820250034D-05 0.943949492648D-02 0.957027077675D-05 0.515369036674D+04
    0.237600000000D+06 0.856816768646D-07 0.116225179714D+01-0.122934579849D-06
    0.975593020634D+00 0.200312500000D+03 0.634705031841D+00-0.774746557018D-08
    0.103218585183D-09 0.100000000000D+01 0.216400000000D+04 0.000000000000D+00
    0.200000000000D+01 0.000000000000D+00 0.186264514923D-08 0.190000000000D+02
    0.230418000000D+06 0.400000000000D+01 0.000000000000D+00 0.000000000000D+00
28 21  6 29 18  0  0.0 0.546372961253D-03-0.636646291241D-11 0.000000000000D+00
    0.120000000000D+03 0.696875000000D+01 0.432053711057D-08-0.132043706907D+01
    0.631436705589D-06 0.174726824043D-01 0.797025859356D-05 0.515372967339D+04
    0.237600000000D+06-0.366941094399D-06 0.209360697673D+00 0.266358256340D-06
    0.972659906458D+00 0.237968750000D+03-0.134571838106D+01-0.808283668259D-08
   -0.237152735506D-09 0.100000000000D+01 0.216400000000D+04 0.000000000000D+00
    0.280000000000D+01 0.630000000000D+02-0.111758708954D-07 0.120000000000D+03
    0.230418000000D+06 0.400000000000D+01 0.000000000000D+00 0.000000000000D+00
29 21  6 29 18  0  0.0-0.372191891074D-03-0.613908923697D-11 0.000000000000D+00
    0.730000000000D+02 0.719062500000D+02 0.392516349881D-08-0.175360524127D+01
    0.379420816898D-05 0.195425166749D-02 0.993721187115D-05 0.515362230873D+04
    0.237600000000D+06-0.223517417908D-07 0.123573840009D+01 0.186264514923D-08
    0.983670161468D+00 0.205343750000D+03 0.220139374507D+01-0.773639368042D-08
    0.685742849656D-10 0.100000000000D+01 0.216400000000D+04 0.000000000000D+00
    0.200000000000D+01 0.000000000000D+00-0.977888703346D-08 0.730000000000D+02
    0.235819000000D+06 0.400000000000D+01 0.000000000000D+00 0.000000000000D+00
30 21  6 29 18  0  0.0-0.444927718490D-03-0.454747350886D-11 0.000000000000D+00
    0.260000000000D+02 0.350937500000D+02 0.517842998811D-08 0.145735948357D+01
    0.192970037460D-05 0.533108250238D-02 0.682100653648D-05 0.515368121338D+04
    0.237600000000D+06-0.106170773506D-06-0.906795501684D+00 0.428408384323D-07
    0.936529986050D+00 0.236625000000D+03-0.275309320447D+01-0.837463455143D-08
    0.100004165575D-09 0.100000000000D+01 0.216400000000D+04 0.000000000000D+00
    0.200000000000D+01 0.000000000000D+00 0.372529029846D-08 0.260000000000D+02
    0.230418000000D+06 0.400000000000D+01 0.000000000000D+00 0.000000000000D+00
31 21  6 29 18  0  0.0-0.125840306282D-03-0.216004991671D-11 0.000000000000D+00
    0.970000000000D+02 0.270312500000D+02 0.471126767178D-08 0.107240782291D+01
    0.162981450558D-05 0.100271191914D-01 0.708363950253D-05 0.515355486870D+04
    0.237600000000D+06-0.651925802231D-07-0.906273986018D+00 0.147148966789D-06
    0.955628220654D+00 0.239562500000D+03 0.266828628540D+00-0.815605401810D-08
    0.137148569931D-09 0.100000000000D+01 0.216400000000D+04 0.000000000000D+00
    0.280000000000D+01 0.000000000000D+00-0.130385160446D-07 0.970000000000D+02
    0.230418000000D+06 0.400000000000D+01 0.000000000000D+00 0.000000000000D+00
32 21  6 29 18  0  0.0 0.164955854416D-04-0.170530256582D-11 0.000000000000D+00
    0.630000000000D+02-0.454375000000D+02 0.440161191623D-08-0.114830317022D+01
   -0.243075191975D-05 0.503729295451D-02 0.109281390905D-04 0.515369195175D+04
    0.237600000000D+06 0.193715095520D-06-0.198603083642D+01 0.484287738800D-07
    0.957158855748D+00 0.169468750000D+03-0.235965559784D+01-0.791640117846D-08
    0.407159816984D-10 0.100000000000D+01 0.216400000000D+04 0.000000000000D+00
    0.200000000000D+01 0.000000000000D+00 0.465661287308D-09 0.630000000000D+02
    0.231649000000D+06 0.400000000000D+01 0.000000000000D+00 0.000000000000D+00
 1 21  6 29 19 59 44.0 0.643301755190D-03-0.117097442853D-10 0.000000000000D+00
    0.720000000000D+02 0.370000000000D+02 0.419160316852D-08-0.303405831323D+01
    0.172853469849D-05 0.110380167607D-01 0.474788248539D-05 0.515368134880D+04
    0.244784000000D+06 0.372529029846D-08 0.222048595976D+01-0.273808836937D-06
    0.984676812953D+00 0.299968750000D+03 0.866485364548D+00-0.793068748782D-08
    0.255724937684D-09 0.100000000000D+01 0.216400000000D+04 0.000000000000D+00
    0.200000000000D+01 0.000000000000D+00 0.512227416039D-08 0.720000000000D+02
    0.237618000000D+06 0.400000000000D+01 0.000000000000D+00 0.000000000000D+00
 6 21  6 29 19 59 44.0 0.332728959620D-04 0.511590769747D-11 0.000000000000D+00
    0.280000000000D+02 0.285625000000D+02 0.423767651624D-08-0.282140844029D+01
    0.162050127983D-05 0.209843099583D-02 0.462494790554D-05 0.515379163742D+04
    0.244784000000D+06-0.689178705216D-07 0.221223509009D+01 0.819563865662D-07
    0.984118804795D+00 0.303031250000D+03-0.967975313612D+00-0.802461997192D-08
    0.255724937684D-09 0.100000000000D+01 0.216400000000D+04 0.000000000000D+00
    0.200000000000D+01 0.000000000000D+00 0.419095158577D-08 0.280000000000D+02
    0.244698000000D+06 0.400000000000D+01 0.000000000000D+00 0.000000000000D+00
 7 21  6 29 19 59 44.0 0.190574675798D-03 0.932232069317D-11 0.000000000000D+00
    0.000000000000D+00 0.280937500000D+02 0.474269755239D-08 0.265972649571D+01
    0.129267573357D-05 0.151290145004D-01 0.737980008125D-05 0.515374853134D+04
    0.244784000000D+06-0.931322574616D-08-0.923521709712D+00-0.234693288803D-06
    0.951315241184D+00 0.230156250000D+03-0.232251641756D+01-0.791175812791D-08
    0.183936233111D-09 0.100000000000D+01 0.216400000000D+04 0.000000000000D+00
    0.200000000000D+01 0.000000000000D+00-0.111758708954D-07 0.000000000000D+00
    0.243012000000D+06 0.400000000000D+01 0.000000000000D+00 0.000000000000D+00
